[{"OBJECT_NAME":"SHIYAN-28B 02","OBJECT_ID":"2025-177A","EPOCH":"2026-03-09T22:20:04.170912","MEAN_MOTION":14.29345292,"ECCENTRICITY":0.00031847,"INCLINATION":10.9983,"RA_OF_ASC_NODE":220.6467,"ARG_OF_PERICENTER":128.0226,"MEAN_ANOMALY":232.029,"EPHEMERIS_TYPE":0,"CLASSIFICATION_TYPE":"U","NORAD_CAT_ID":65226,"ELEMENT_SET_NO":999,"REV_AT_EPOCH":2931,"BSTAR":0.00012341019,"MEAN_MOTION_DOT":7.51e-6,"MEAN_MOTION_DDOT":0},{"OBJECT_NAME":"DMSP 5D-2 F11 DEB","OBJECT_ID":"1991-082BS","EPOCH":"2026-03-09T00:43:46.624800","MEAN_MOTION":14.36765784,"ECCENTRICITY":0.0074783,"INCLINATION":98.9473,"RA_OF_ASC_NODE":137.1412,"ARG_OF_PERICENTER":124.3819,"MEAN_ANOMALY":236.4468,"EPHEMERIS_TYPE":0,"CLASSIFICATION_TYPE":"U","NORAD_CAT_ID":29071,"ELEMENT_SET_NO":999,"REV_AT_EPOCH":11727,"BSTAR":0.0026271637,"MEAN_MOTION_DOT":7.965e-5,"MEAN_MOTION_DDOT":0}]
